[{"OBJECT_NAME":"METEOR-M2 3","OBJECT_ID":"2023-091A","EPOCH":"2026-03-09T22:59:41.369280","MEAN_MOTION":14.24037691,"ECCENTRICITY":0.000511,"INCLINATION":98.6213,"RA_OF_ASC_NODE":125.9119,"ARG_OF_PERICENTER":98.6128,"MEAN_ANOMALY":261.563,"EPHEMERIS_TYPE":0,"CLASSIFICATION_TYPE":"U","NORAD_CAT_ID":57166,"ELEMENT_SET_NO":999,"REV_AT_EPOCH":14039,"BSTAR":2.3891208e-5,"MEAN_MOTION_DOT":1.2e-7,"MEAN_MOTION_DDOT":0},{"OBJECT_NAME":"METEOR 2-8 DEB","OBJECT_ID":"1982-025K","EPOCH":"2026-03-09T09:34:24.850272","MEAN_MOTION":14.19587421,"ECCENTRICITY":0.00152783,"INCLINATION":82.5233,"RA_OF_ASC_NODE":312.8316,"ARG_OF_PERICENTER":244.2465,"MEAN_ANOMALY":115.7138,"EPHEMERIS_TYPE":0,"CLASSIFICATION_TYPE":"U","NORAD_CAT_ID":36325,"ELEMENT_SET_NO":999,"REV_AT_EPOCH":63804,"BSTAR":0.0010331459,"MEAN_MOTION_DOT":2.197e-5,"MEAN_MOTION_DDOT":0}]
